{
  "norad_id": 52880,
  "name": "STARLINK-4186",
  "history": [
    {
      "epoch": "2026-03-28T20:41:34.567296Z",
      "apogee_km": 540.7410645158106,
      "perigee_km": 538.7113634488278,
      "latitude_deg": -8.183202998603724e-07,
      "longitude_deg": 151.38500442217645,
      "height_km": 540.5713100582012,
      "semi_major_axis_km": 6917.863213982319,
      "eccentricity": 0.0001467,
      "inclination_deg": 53.2167,
      "raan_deg": 288.0556,
      "arg_perigee_deg": 87.1538,
      "mean_anomaly_deg": 272.9622,
      "mean_motion_rev_day": 15.08845619
    }
  ]
}