{"fetched_at":"2026-03-29T16:36:15Z","count":15609,"tles":[{"name":"STARLINK-4186","line1":"1 52880U 22062BC  26087.86220564 -.00000486  00000+0 -12458-4 0  9994","line2":"2 52880  53.2167 288.0556 0001467  87.1538 272.9622 15.08845619208965","category":"Starlink"}]}